{
  "type": "FeatureCollection",
  "features": [
    {
      "type": "Feature",
      "properties": {
        "norad_id": 36244,
        "name": "FENGYUN 1C DEB",
        "group": "fengyun-1c-debris",
        "lat": 58.41960884797493,
        "lon": -71.89868558902569,
        "alt_km": 837.8272079504632,
        "timestamp": "2025-12-08T17:43:05.219740+00:00",
        "meta_object_name": "FENGYUN 1C DEB",
        "meta_object_id": "1999-025DVV",
        "meta_epoch": "2025-12-01T06:30:33.359616",
        "meta_mean_motion": 14.24827854,
        "meta_eccentricity": 0.00483696,
        "meta_inclination": 98.9263,
        "meta_ra_of_asc_node": 85.6985,
        "meta_arg_of_pericenter": 317.9202,
        "meta_mean_anomaly": 41.8266,
        "meta_ephemeris_type": 0,
        "meta_classification_type": "U",
        "meta_norad_cat_id": 36244,
        "meta_element_set_no": 999,
        "meta_rev_at_epoch": 91815,
        "meta_bstar": 0.0019641891,
        "meta_mean_motion_dot": 4.594e-05,
        "meta_mean_motion_ddot": 0,
        "tle_line1": "1 36244U 99025DVV 25335.27121944  .00004594  00000+0  19642-2 0  9997",
        "tle_line2": "2 36244  98.9263  85.6985 0048369 317.9202  41.8266 14.24827854918159"
      },
      "geometry": {
        "type": "Point",
        "coordinates": [
          -71.89868558902569,
          58.41960884797493
        ]
      }
    },
    {
      "type": "Feature",
      "properties": {
        "norad_id": 36247,
        "name": "FENGYUN 1C DEB",
        "group": "fengyun-1c-debris",
        "lat": -55.313468621687974,
        "lon": 8.117232168758594,
        "alt_km": 811.7718616976063,
        "timestamp": "2025-12-08T17:43:05.219751+00:00",
        "meta_object_name": "FENGYUN 1C DEB",
        "meta_object_id": "1999-025DVY",
        "meta_epoch": "2025-12-01T11:45:50.986944",
        "meta_mean_motion": 14.33529137,
        "meta_eccentricity": 0.01878056,
        "meta_inclination": 98.2683,
        "meta_ra_of_asc_node": 349.0587,
        "meta_arg_of_pericenter": 67.2123,
        "meta_mean_anomaly": 294.8783,
        "meta_ephemeris_type": 0,
        "meta_classification_type": "U",
        "meta_norad_cat_id": 36247,
        "meta_element_set_no": 999,
        "meta_rev_at_epoch": 70101,
        "meta_bstar": 0.00050385684,
        "meta_mean_motion_dot": 1.653e-05,
        "meta_mean_motion_ddot": 0,
        "tle_line1": "1 36247U 99025DVY 25335.49017346  .00001653  00000+0  50386-3 0  9998",
        "tle_line2": "2 36247  98.2683 349.0587 0187805  67.2123 294.8783 14.33529137701014"
      },
      "geometry": {
        "type": "Point",
        "coordinates": [
          8.117232168758594,
          -55.313468621687974
        ]
      }
    },
    {
      "type": "Feature",
      "properties": {
        "norad_id": 36254,
        "name": "FENGYUN 1C DEB",
        "group": "fengyun-1c-debris",
        "lat": -41.875099962704354,
        "lon": 107.17014010826682,
        "alt_km": 552.9697565885808,
        "timestamp": "2025-12-08T17:43:05.219761+00:00",
        "meta_object_name": "FENGYUN 1C DEB",
        "meta_object_id": "1999-025DWF",
        "meta_epoch": "2025-12-05T14:18:33.750144",
        "meta_mean_motion": 15.16014702,
        "meta_eccentricity": 0.00460473,
        "meta_inclination": 99.5277,
        "meta_ra_of_asc_node": 291.891,
        "meta_arg_of_pericenter": 66.6494,
        "meta_mean_anomaly": 293.9567,
        "meta_ephemeris_type": 0,
        "meta_classification_type": "U",
        "meta_norad_cat_id": 36254,
        "meta_element_set_no": 999,
        "meta_rev_at_epoch": 60668,
        "meta_bstar": 0.0055743559,
        "meta_mean_motion_dot": 0.00111504,
        "meta_mean_motion_ddot": 0,
        "tle_line1": "1 36254U 99025DWF 25339.59622396  .00111504  00000+0  55744-2 0  9997",
        "tle_line2": "2 36254  99.5277 291.8910 0046047  66.6494 293.9567 15.16014702606681"
      },
      "geometry": {
        "type": "Point",
        "coordinates": [
          107.17014010826682,
          -41.875099962704354
        ]
      }
    },
    {
      "type": "Feature",
      "properties": {
        "norad_id": 36255,
        "name": "FENGYUN 1C DEB",
        "group": "fengyun-1c-debris",
        "lat": 36.614596812247115,
        "lon": -104.08744988928994,
        "alt_km": 800.8999601274118,
        "timestamp": "2025-12-08T17:43:05.219771+00:00",
        "meta_object_name": "FENGYUN 1C DEB",
        "meta_object_id": "1999-025DWG",
        "meta_epoch": "2025-12-06T14:17:51.179136",
        "meta_mean_motion": 14.36529712,
        "meta_eccentricity": 0.0063603,
        "meta_inclination": 99.4343,
        "meta_ra_of_asc_node": 260.6647,
        "meta_arg_of_pericenter": 181.4041,
        "meta_mean_anomaly": 302.4314,
        "meta_ephemeris_type": 0,
        "meta_classification_type": "U",
        "meta_norad_cat_id": 36255,
        "meta_element_set_no": 999,
        "meta_rev_at_epoch": 63922,
        "meta_bstar": 0.0013800054,
        "meta_mean_motion_dot": 4.098e-05,
        "meta_mean_motion_ddot": 0,
        "tle_line1": "1 36255U 99025DWG 25340.59573124  .00004098  00000+0  13800-2 0  9990",
        "tle_line2": "2 36255  99.4343 260.6647 0063603 181.4041 302.4314 14.36529712639222"
      },
      "geometry": {
        "type": "Point",
        "coordinates": [
          -104.08744988928994,
          36.614596812247115
        ]
      }
    },
    {
      "type": "Feature",
      "properties": {
        "norad_id": 36258,
        "name": "FENGYUN 1C DEB",
        "group": "fengyun-1c-debris",
        "lat": -31.2816652442171,
        "lon": 17.313145391406113,
        "alt_km": 771.5407015493065,
        "timestamp": "2025-12-08T17:43:05.219782+00:00",
        "meta_object_name": "FENGYUN 1C DEB",
        "meta_object_id": "1999-025DWK",
        "meta_epoch": "2025-12-06T20:16:25.067712",
        "meta_mean_motion": 14.74805941,
        "meta_eccentricity": 0.01734754,
        "meta_inclination": 99.087,
        "meta_ra_of_asc_node": 9.6088,
        "meta_arg_of_pericenter": 143.9533,
        "meta_mean_anomaly": 217.3518,
        "meta_ephemeris_type": 0,
        "meta_classification_type": "U",
        "meta_norad_cat_id": 36258,
        "meta_element_set_no": 999,
        "meta_rev_at_epoch": 90735,
        "meta_bstar": 0.00055378144,
        "meta_mean_motion_dot": 4.661e-05,
        "meta_mean_motion_ddot": 0,
        "tle_line1": "1 36258U 99025DWK 25340.84473458  .00004661  00000+0  55378-3 0  9993",
        "tle_line2": "2 36258  99.0870   9.6088 0173475 143.9533 217.3518 14.74805941907359"
      },
      "geometry": {
        "type": "Point",
        "coordinates": [
          17.313145391406113,
          -31.2816652442171
        ]
      }
    },
    {
      "type": "Feature",
      "properties": {
        "norad_id": 36260,
        "name": "FENGYUN 1C DEB",
        "group": "fengyun-1c-debris",
        "lat": -73.57540966024027,
        "lon": 133.89698152019992,
        "alt_km": 837.6564840552501,
        "timestamp": "2025-12-08T17:43:05.219792+00:00",
        "meta_object_name": "FENGYUN 1C DEB",
        "meta_object_id": "1999-025DWM",
        "meta_epoch": "2025-12-03T17:44:50.798112",
        "meta_mean_motion": 14.15362568,
        "meta_eccentricity": 0.0014917,
        "meta_inclination": 98.6608,
        "meta_ra_of_asc_node": 340.1773,
        "meta_arg_of_pericenter": 277.2029,
        "meta_mean_anomaly": 82.7449,
        "meta_ephemeris_type": 0,
        "meta_classification_type": "U",
        "meta_norad_cat_id": 36260,
        "meta_element_set_no": 999,
        "meta_rev_at_epoch": 87681,
        "meta_bstar": 0.00025923312,
        "meta_mean_motion_dot": 4.63e-06,
        "meta_mean_motion_ddot": 0,
        "tle_line1": "1 36260U 99025DWM 25337.73947683  .00000463  00000+0  25923-3 0  9995",
        "tle_line2": "2 36260  98.6608 340.1773 0014917 277.2029  82.7449 14.15362568876817"
      },
      "geometry": {
        "type": "Point",
        "coordinates": [
          133.89698152019992,
          -73.57540966024027
        ]
      }
    },
    {
      "type": "Feature",
      "properties": {
        "norad_id": 36261,
        "name": "FENGYUN 1C DEB",
        "group": "fengyun-1c-debris",
        "lat": -59.54666076513113,
        "lon": -105.58945104148327,
        "alt_km": 1312.942896062029,
        "timestamp": "2025-12-08T17:43:05.219803+00:00",
        "meta_object_name": "FENGYUN 1C DEB",
        "meta_object_id": "1999-025DWN",
        "meta_epoch": "2025-12-02T22:49:55.041600",
        "meta_mean_motion": 13.45467056,
        "meta_eccentricity": 0.03552723,
        "meta_inclination": 101.3643,
        "meta_ra_of_asc_node": 227.8571,
        "meta_arg_of_pericenter": 97.9346,
        "meta_mean_anomaly": 266.225,
        "meta_ephemeris_type": 0,
        "meta_classification_type": "U",
        "meta_norad_cat_id": 36261,
        "meta_element_set_no": 999,
        "meta_rev_at_epoch": 84301,
        "meta_bstar": 0.00066301052,
        "meta_mean_motion_dot": 5.22e-06,
        "meta_mean_motion_ddot": 0,
        "tle_line1": "1 36261U 99025DWN 25336.95133150  .00000522  00000+0  66301-3 0  9996",
        "tle_line2": "2 36261 101.3643 227.8571 0355272  97.9346 266.2250 13.45467056843012"
      },
      "geometry": {
        "type": "Point",
        "coordinates": [
          -105.58945104148327,
          -59.54666076513113
        ]
      }
    }
  ]
}